{"fetched_at":"2026-07-10T07:59:06.780Z","source":"https://celestrak.org/NORAD/elements/gp.php?NAME=JILIN&FORMAT=JSON","constellation":"jilin-1-early","records":[{"OBJECT_NAME":"JILIN-1","OBJECT_ID":"2015-057D","EPOCH":"2026-07-09T06:49:00.909120","CLASSIFICATION_TYPE":"U","MEAN_MOTION":14.78195716,"ECCENTRICITY":0.00166734,"INCLINATION":97.6515,"RA_OF_ASC_NODE":188.5545,"ARG_OF_PERICENTER":186.0684,"MEAN_ANOMALY":174.0329,"EPHEMERIS_TYPE":0,"NORAD_CAT_ID":40961,"ELEMENT_SET_NO":999,"REV_AT_EPOCH":57887,"BSTAR":0.000087292055,"MEAN_MOTION_DOT":0.00000585,"MEAN_MOTION_DDOT":0},{"OBJECT_NAME":"JILIN-1 03","OBJECT_ID":"2017-002B","EPOCH":"2026-07-09T19:20:09.125952","CLASSIFICATION_TYPE":"U","MEAN_MOTION":15.42138455,"ECCENTRICITY":0.0008022,"INCLINATION":97.1951,"RA_OF_ASC_NODE":197.5788,"ARG_OF_PERICENTER":93.6016,"MEAN_ANOMALY":266.6149,"EPHEMERIS_TYPE":0,"NORAD_CAT_ID":41914,"ELEMENT_SET_NO":999,"REV_AT_EPOCH":52534,"BSTAR":0.00023064,"MEAN_MOTION_DOT":0.00009804,"MEAN_MOTION_DDOT":0},{"OBJECT_NAME":"JILIN-1 04","OBJECT_ID":"2017-074A","EPOCH":"2026-07-09T20:28:07.421952","CLASSIFICATION_TYPE":"U","MEAN_MOTION":15.43037825,"ECCENTRICITY":0.0005194,"INCLINATION":97.4866,"RA_OF_ASC_NODE":301.0804,"ARG_OF_PERICENTER":114.1128,"MEAN_ANOMALY":246.0663,"EPHEMERIS_TYPE":0,"NORAD_CAT_ID":43022,"ELEMENT_SET_NO":999,"REV_AT_EPOCH":47776,"BSTAR":0.0002375,"MEAN_MOTION_DOT":0.00010396,"MEAN_MOTION_DDOT":0},{"OBJECT_NAME":"JILIN-1 05","OBJECT_ID":"2017-074B","EPOCH":"2026-07-09T19:42:06.477984","CLASSIFICATION_TYPE":"U","MEAN_MOTION":15.34231526,"ECCENTRICITY":0.0006181,"INCLINATION":97.4871,"RA_OF_ASC_NODE":297.2877,"ARG_OF_PERICENTER":139.716,"MEAN_ANOMALY":220.4542,"EPHEMERIS_TYPE":0,"NORAD_CAT_ID":43023,"ELEMENT_SET_NO":999,"REV_AT_EPOCH":47747,"BSTAR":0.00018999,"MEAN_MOTION_DOT":0.00006216,"MEAN_MOTION_DDOT":0},{"OBJECT_NAME":"JILIN-1 06","OBJECT_ID":"2017-074C","EPOCH":"2026-07-09T19:05:59.058816","CLASSIFICATION_TYPE":"U","MEAN_MOTION":15.33956999,"ECCENTRICITY":0.0007707,"INCLINATION":97.4798,"RA_OF_ASC_NODE":294.2419,"ARG_OF_PERICENTER":150.3522,"MEAN_ANOMALY":209.8159,"EPHEMERIS_TYPE":0,"NORAD_CAT_ID":43024,"ELEMENT_SET_NO":999,"REV_AT_EPOCH":47730,"BSTAR":0.00012472,"MEAN_MOTION_DOT":0.00004018,"MEAN_MOTION_DDOT":0},{"OBJECT_NAME":"JILIN-1 07","OBJECT_ID":"2018-008E","EPOCH":"2026-07-09T20:17:09.373632","CLASSIFICATION_TYPE":"U","MEAN_MOTION":15.35105707,"ECCENTRICITY":0.0007336,"INCLINATION":97.177,"RA_OF_ASC_NODE":210.1735,"ARG_OF_PERICENTER":350.0828,"MEAN_ANOMALY":10.027,"EPHEMERIS_TYPE":0,"NORAD_CAT_ID":43159,"ELEMENT_SET_NO":999,"REV_AT_EPOCH":46847,"BSTAR":0.00019119,"MEAN_MOTION_DOT":0.0000644,"MEAN_MOTION_DDOT":0},{"OBJECT_NAME":"JILIN-1 08","OBJECT_ID":"2018-008F","EPOCH":"2026-07-09T19:06:19.825056","CLASSIFICATION_TYPE":"U","MEAN_MOTION":15.33969957,"ECCENTRICITY":0.000598,"INCLINATION":97.1805,"RA_OF_ASC_NODE":209.4169,"ARG_OF_PERICENTER":12.7487,"MEAN_ANOMALY":347.3906,"EPHEMERIS_TYPE":0,"NORAD_CAT_ID":43160,"ELEMENT_SET_NO":999,"REV_AT_EPOCH":46841,"BSTAR":0.0001331,"MEAN_MOTION_DOT":0.00004299,"MEAN_MOTION_DDOT":0},{"OBJECT_NAME":"JILIN-1 09","OBJECT_ID":"2019-005B","EPOCH":"2026-07-09T19:36:24.422112","CLASSIFICATION_TYPE":"U","MEAN_MOTION":15.20712233,"ECCENTRICITY":0.000281,"INCLINATION":97.4742,"RA_OF_ASC_NODE":285.5893,"ARG_OF_PERICENTER":48.3118,"MEAN_ANOMALY":311.8357,"EPHEMERIS_TYPE":0,"NORAD_CAT_ID":43943,"ELEMENT_SET_NO":999,"REV_AT_EPOCH":41258,"BSTAR":0.00014475,"MEAN_MOTION_DOT":0.00003113,"MEAN_MOTION_DDOT":0},{"OBJECT_NAME":"JILIN-1 10","OBJECT_ID":"2019-005E","EPOCH":"2026-07-09T19:36:41.892192","CLASSIFICATION_TYPE":"U","MEAN_MOTION":15.25969065,"ECCENTRICITY":0.0008034,"INCLINATION":97.479,"RA_OF_ASC_NODE":289.6256,"ARG_OF_PERICENTER":188.0155,"MEAN_ANOMALY":172.0956,"EPHEMERIS_TYPE":0,"NORAD_CAT_ID":43946,"ELEMENT_SET_NO":999,"REV_AT_EPOCH":41276,"BSTAR":0.00016399,"MEAN_MOTION_DOT":0.00004141,"MEAN_MOTION_DDOT":0}]}
