JILIN-1                 
1 40961U 15057D   26190.28403830  .00000585  00000+0  87292-4 0  9993
2 40961  97.6515 188.5545 0016673 186.0684 174.0329 14.78195716578877
JILIN-1 03              
1 41914U 17002B   26190.80566118  .00009804  00000+0  23064-3 0  9990
2 41914  97.1951 197.5788 0008022  93.6016 266.6149 15.42138455525346
JILIN-1 04              
1 43022U 17074A   26190.85286368  .00010396  00000+0  23750-3 0  9992
2 43022  97.4866 301.0804 0005194 114.1128 246.0663 15.43037825477762
JILIN-1 05              
1 43023U 17074B   26190.82090831  .00006216  00000+0  18999-3 0  9993
2 43023  97.4871 297.2877 0006181 139.7160 220.4542 15.34231526477475
JILIN-1 06              
1 43024U 17074C   26190.79582244  .00004018  00000+0  12472-3 0  9992
2 43024  97.4798 294.2419 0007707 150.3522 209.8159 15.33956999477303
JILIN-1 07              
1 43159U 18008E   26190.84524738  .00006440  00000+0  19119-3 0  9995
2 43159  97.1770 210.1735 0007336 350.0828  10.0270 15.35105707468472
JILIN-1 08              
1 43160U 18008F   26190.79606279  .00004299  00000+0  13310-3 0  9999
2 43160  97.1805 209.4169 0005980  12.7487 347.3906 15.33969957468410
JILIN-1 09              
1 43943U 19005B   26190.81694933  .00003113  00000+0  14475-3 0  9990
2 43943  97.4742 285.5893 0002810  48.3118 311.8357 15.20712233412588
JILIN-1 10              
1 43946U 19005E   26190.81715153  .00004141  00000+0  16399-3 0  9990
2 43946  97.4790 289.6256 0008034 188.0155 172.0956 15.25969065412763
